{
 "type": "FeatureCollection",
 "features": [
  {
   "id": "0",
   "type": "Feature",
   "properties": {
    "zone": 2,
    "note": "Race Course Park + 60 m",
    "source": "OSM w465388301",
    "confidence": "high"
   },
   "geometry": {
    "type": "Polygon",
    "coordinates": [
     [
      [
       70.78788325992119,
       22.29895192190157
      ],
      [
       70.78946753276053,
       22.299194766484955
      ],
      [
       70.78975768211369,
       22.299274739859243
      ],
      [
       70.7902439409673,
       22.299257522953525
      ],
      [
       70.79028333604968,
       22.299348688901006
      ],
      [
       70.79044416440178,
       22.300388964407293
      ],
      [
       70.79068572787168,
       22.300787823731927
      ],
      [
       70.79079610972552,
       22.301368237916492
      ],
      [
       70.79088049243619,
       22.301551286779066
      ],
      [
       70.79127723114054,
       22.301997253759414
      ],
      [
       70.7916473083367,
       22.30222577575192
      ],
      [
       70.79181577445125,
       22.302256641906702
      ],
      [
       70.79204146502876,
       22.302224713548764
      ],
      [
       70.79219246134834,
       22.302148653182304
      ],
      [
       70.79234458621936,
       22.301990267144014
      ],
      [
       70.79240892108923,
       22.301842133838555
      ],
      [
       70.79242402961768,
       22.30168298065617
      ],
      [
       70.79214021042955,
       22.30001422552435
      ],
      [
       70.7919392458532,
       22.298490642161116
      ],
      [
       70.79181847499989,
       22.298260581929295
      ],
      [
       70.79154502545431,
       22.298018224065363
      ],
      [
       70.79128460406463,
       22.29792981620117
      ],
      [
       70.78806481645893,
       22.297600516639342
      ],
      [
       70.78783406275103,
       22.297620075392672
      ],
      [
       70.78762977723963,
       22.29772182864119
      ],
      [
       70.78748431117687,
       22.297889662509526
      ],
      [
       70.78742813428322,
       22.298043196666516
      ],
      [
       70.78739577086387,
       22.298428807184774
      ],
      [
       70.7874456103524,
       22.29863691047428
      ],
      [
       70.78753800421468,
       22.298772279982668
      ],
      [
       70.78771923593816,
       22.298902726978596
      ],
      [
       70.78788325992119,
       22.29895192190157
      ]
     ]
    ]
   }
  },
  {
   "id": "1",
   "type": "Feature",
   "properties": {
    "zone": 2,
    "note": "Race Course Ground + 60 m",
    "source": "OSM w801008359",
    "confidence": "high"
   },
   "geometry": {
    "type": "Polygon",
    "coordinates": [
     [
      [
       70.78779094248607,
       22.30540509606611
      ],
      [
       70.78826755639338,
       22.30663176235246
      ],
      [
       70.78863019189228,
       22.307091215184542
      ],
      [
       70.78895847930319,
       22.30740311209811
      ],
      [
       70.78909208256607,
       22.307483279103863
      ],
      [
       70.78948140243652,
       22.30764979873659
      ],
      [
       70.78992695427704,
       22.30776266418804
      ],
      [
       70.79086736561935,
       22.307905896302266
      ],
      [
       70.79133543505463,
       22.307896363175082
      ],
      [
       70.79150017570707,
       22.307852212631396
      ],
      [
       70.7916850010899,
       22.307728088546135
      ],
      [
       70.79184907907272,
       22.30756024903894
      ],
      [
       70.79204466194204,
       22.307248734918815
      ],
      [
       70.79214466658492,
       22.306822405103926
      ],
      [
       70.79223931653685,
       22.305598078920664
      ],
      [
       70.79226398068721,
       22.30478645381691
      ],
      [
       70.79223833960444,
       22.30462967000401
      ],
      [
       70.79216501162324,
       22.304486510271936
      ],
      [
       70.79205027881318,
       22.304369238988052
      ],
      [
       70.79190397028783,
       22.30428790265711
      ],
      [
       70.79168169619689,
       22.304246874290303
      ],
      [
       70.78962159292486,
       22.304248757092257
      ],
      [
       70.78839982135776,
       22.304531545760135
      ],
      [
       70.78820016472703,
       22.30461922210164
      ],
      [
       70.78784324250228,
       22.30494281949625
      ],
      [
       70.787758812179,
       22.30519507499197
      ],
      [
       70.78779094248607,
       22.30540509606611
      ]
     ]
    ]
   }
  },
  {
   "id": "2",
   "type": "Feature",
   "properties": {
    "zone": 2,
    "note": "Jubilee Park + 60 m",
    "source": "OSM w468477776",
    "confidence": "high"
   },
   "geometry": {
    "type": "Polygon",
    "coordinates": [
     [
      [
       70.8008173289497,
       22.30107998754469
      ],
      [
       70.80104079852704,
       22.301656013539727
      ],
      [
       70.8011849080136,
       22.301811500429597
      ],
      [
       70.80132844814304,
       22.301888958931105
      ],
      [
       70.80250494107145,
       22.302014522413884
      ],
      [
       70.80272777307354,
       22.30197291296973
      ],
      [
       70.80291651229018,
       22.301855094551744
      ],
      [
       70.80301806900698,
       22.3017271482999
      ],
      [
       70.8030753215585,
       22.30157727300515
      ],
      [
       70.80330117878447,
       22.299422140154007
      ],
      [
       70.80328034383606,
       22.299217771452287
      ],
      [
       70.8031793011718,
       22.299035284039093
      ],
      [
       70.80305922553879,
       22.298928765693265
      ],
      [
       70.80285851446575,
       22.298843569149184
      ],
      [
       70.80166884809647,
       22.298682735946816
      ],
      [
       70.80138362833671,
       22.298711193674613
      ],
      [
       70.80118783878714,
       22.298824107833696
      ],
      [
       70.80105442325825,
       22.29899883789723
      ],
      [
       70.80100832542553,
       22.299154251905772
      ],
      [
       70.80079001846829,
       22.30083935159373
      ],
      [
       70.8008173289497,
       22.30107998754469
      ]
     ]
    ]
   }
  },
  {
   "id": "3",
   "type": "Feature",
   "properties": {
    "zone": 2,
    "note": "Watson Museum + 80 m",
    "source": "OSM w1192158114",
    "confidence": "high"
   },
   "geometry": {
    "type": "Polygon",
    "coordinates": [
     [
      [
       70.80094048439489,
       22.300278649411084
      ],
      [
       70.80097834230352,
       22.3006584098696
      ],
      [
       70.80104746408192,
       22.300857961587738
      ],
      [
       70.80117525256148,
       22.30103064012173
      ],
      [
       70.80128790091294,
       22.301123515438363
      ],
      [
       70.80141769018971,
       22.301194420165565
      ],
      [
       70.80163371200125,
       22.301254004465545
      ],
      [
       70.80189896285697,
       22.30128584865581
      ],
      [
       70.80212758595391,
       22.30126339895637
      ],
      [
       70.8022717020892,
       22.30121401880741
      ],
      [
       70.80246137708454,
       22.30109314230147
      ],
      [
       70.8027912704379,
       22.300676873583072
      ],
      [
       70.80288116729272,
       22.300410549505283
      ],
      [
       70.80288856310806,
       22.300072732217327
      ],
      [
       70.80269115355529,
       22.29958302544141
      ],
      [
       70.80249356755066,
       22.299360360180863
      ],
      [
       70.80236301605578,
       22.299280985909423
      ],
      [
       70.80214197512332,
       22.299211169108705
      ],
      [
       70.80166454612096,
       22.29920342217154
      ],
      [
       70.80133348086044,
       22.29935235463164
      ],
      [
       70.80114555457367,
       22.299564189336227
      ],
      [
       70.8009721821671,
       22.300002544235653
      ],
      [
       70.80094048439489,
       22.300278649411084
      ]
     ]
    ]
   }
  },
  {
   "id": "4",
   "type": "Feature",
   "properties": {
    "zone": 2,
    "note": "Rajkumar College campus (approx. 250 m around point)",
    "source": "Overture places: The Rajkumar College",
    "confidence": "medium"
   },
   "geometry": {
    "type": "Polygon",
    "coordinates": [
     [
      [
       70.80036581518547,
       22.293503100223443
      ],
      [
       70.8003135609771,
       22.293063212653806
      ],
      [
       70.80017009319404,
       22.292641263974975
      ],
      [
       70.7999409258955,
       22.292253469163118
      ],
      [
       70.79963486626389,
       22.291914730589987
      ],
      [
       70.79926367608704,
       22.291638065388767
      ],
      [
       70.79884161974591,
       22.291434105273858
      ],
      [
       70.79838491608055,
       22.291310688026993
      ],
      [
       70.79791111519249,
       22.291272556339997
      ],
      [
       70.79743842412064,
       22.291321175580713
      ],
      [
       70.79698500728632,
       22.291454677481475
      ],
      [
       70.79656828857144,
       22.291667931913906
      ],
      [
       70.7962042818307,
       22.29195274399506
      ],
      [
       70.795906975551,
       22.292298168956577
      ],
      [
       70.79568779529511,
       22.292690932685055
      ],
      [
       70.79555516458566,
       22.29311594178187
      ],
      [
       70.79551418111066,
       22.29355686354967
      ],
      [
       70.7955664207057,
       22.29399675362381
      ],
      [
       70.79570987666402,
       22.29441870713298
      ],
      [
       70.79593903672666,
       22.294806508365653
      ],
      [
       70.79624509481282,
       22.295145253972542
      ],
      [
       70.79661628936994,
       22.295421925749665
      ],
      [
       70.79703835535017,
       22.295625890981484
      ],
      [
       70.79749507244605,
       22.29574931110726
      ],
      [
       70.79796888851133,
       22.29578744299688
      ],
      [
       70.79844159419656,
       22.295738821251664
      ],
      [
       70.79889502285559,
       22.295605314520554
      ],
      [
       70.79931174880637,
       22.295392053667307
      ],
      [
       70.79967575709259,
       22.295107234552386
      ],
      [
       70.79997305899201,
       22.294761803014985
      ],
      [
       70.8001922296088,
       22.294369034169602
      ],
      [
       70.8003248468877,
       22.293944022193873
      ],
      [
       70.80036581518547,
       22.293503100223443
      ]
     ]
    ]
   }
  }
 ]
}